[{"OBJECT_NAME":"FENGYUN 1C DEB","OBJECT_ID":"1999-025EKH","EPOCH":"2026-03-11T12:20:05.116704","MEAN_MOTION":14.09165605,"ECCENTRICITY":0.0120792,"INCLINATION":99.0737,"RA_OF_ASC_NODE":338.6879,"ARG_OF_PERICENTER":14.2145,"MEAN_ANOMALY":346.2375,"EPHEMERIS_TYPE":0,"CLASSIFICATION_TYPE":"U","NORAD_CAT_ID":37589,"ELEMENT_SET_NO":999,"REV_AT_EPOCH":83834,"BSTAR":0.0033673167,"MEAN_MOTION_DOT":6.216e-5,"MEAN_MOTION_DDOT":0},{"OBJECT_NAME":"FENGYUN 1C DEB","OBJECT_ID":"1999-025EKK","EPOCH":"2026-03-13T02:48:13.153824","MEAN_MOTION":14.56576699,"ECCENTRICITY":0.00721443,"INCLINATION":98.409,"RA_OF_ASC_NODE":23.9597,"ARG_OF_PERICENTER":74.189,"MEAN_ANOMALY":343.5018,"EPHEMERIS_TYPE":0,"CLASSIFICATION_TYPE":"U","NORAD_CAT_ID":37591,"ELEMENT_SET_NO":999,"REV_AT_EPOCH":67779,"BSTAR":0.0054403136,"MEAN_MOTION_DOT":0.00025145,"MEAN_MOTION_DDOT":0},{"OBJECT_NAME":"FENGYUN 1C DEB","OBJECT_ID":"1999-025EKN","EPOCH":"2026-03-13T19:10:51.883104","MEAN_MOTION":14.11220191,"ECCENTRICITY":0.00858955,"INCLINATION":98.724,"RA_OF_ASC_NODE":104.6166,"ARG_OF_PERICENTER":12.3409,"MEAN_ANOMALY":347.9839,"EPHEMERIS_TYPE":0,"CLASSIFICATION_TYPE":"U","NORAD_CAT_ID":37594,"ELEMENT_SET_NO":999,"REV_AT_EPOCH":79046,"BSTAR":0.00030070452,"MEAN_MOTION_DOT":5.19e-6,"MEAN_MOTION_DDOT":0},{"OBJECT_NAME":"FENGYUN 1C DEB","OBJECT_ID":"1999-025EKP","EPOCH":"2026-03-11T10:42:45.256032","MEAN_MOTION":14.77245729,"ECCENTRICITY":0.00230897,"INCLINATION":99.0483,"RA_OF_ASC_NODE":294.9616,"ARG_OF_PERICENTER":84.7224,"MEAN_ANOMALY":46.7342,"EPHEMERIS_TYPE":0,"CLASSIFICATION_TYPE":"U","NORAD_CAT_ID":37595,"ELEMENT_SET_NO":999,"REV_AT_EPOCH":63912,"BSTAR":0.0049718359,"MEAN_MOTION_DOT":0.00035513,"MEAN_MOTION_DDOT":0},{"OBJECT_NAME":"FENGYUN 1C DEB","OBJECT_ID":"1999-025EKY","EPOCH":"2026-03-04T13:05:40.155360","MEAN_MOTION":13.32446014,"ECCENTRICITY":0.058244,"INCLINATION":98.0009,"RA_OF_ASC_NODE":330.7658,"ARG_OF_PERICENTER":276.9345,"MEAN_ANOMALY":210.2617,"EPHEMERIS_TYPE":0,"CLASSIFICATION_TYPE":"U","NORAD_CAT_ID":37683,"ELEMENT_SET_NO":999,"REV_AT_EPOCH":30329,"BSTAR":0.0019745,"MEAN_MOTION_DOT":2.462e-5,"MEAN_MOTION_DDOT":0},{"OBJECT_NAME":"FENGYUN 1C DEB","OBJECT_ID":"1999-025ELB","EPOCH":"2026-02-28T06:49:05.156544","MEAN_MOTION":13.35440171,"ECCENTRICITY":0.03941094,"INCLINATION":99.021,"RA_OF_ASC_NODE":73.8691,"ARG_OF_PERICENTER":209.8027,"MEAN_ANOMALY":217.438,"EPHEMERIS_TYPE":0,"CLASSIFICATION_TYPE":"U","NORAD_CAT_ID":37686,"ELEMENT_SET_NO":999,"REV_AT_EPOCH":61662,"BSTAR":0.00047060223,"MEAN_MOTION_DOT":3.34e-6,"MEAN_MOTION_DDOT":0},{"OBJECT_NAME":"FENGYUN 1C DEB","OBJECT_ID":"1999-025ELC","EPOCH":"2026-03-03T07:24:09.370656","MEAN_MOTION":13.86110343,"ECCENTRICITY":0.03376894,"INCLINATION":98.1986,"RA_OF_ASC_NODE":92.6159,"ARG_OF_PERICENTER":136.8862,"MEAN_ANOMALY":287.1542,"EPHEMERIS_TYPE":0,"CLASSIFICATION_TYPE":"U","NORAD_CAT_ID":37687,"ELEMENT_SET_NO":999,"REV_AT_EPOCH":84370,"BSTAR":0.003258083,"MEAN_MOTION_DOT":5.848e-5,"MEAN_MOTION_DDOT":0},{"OBJECT_NAME":"FENGYUN 1C DEB","OBJECT_ID":"1999-025ELE","EPOCH":"2026-03-14T14:03:32.328576","MEAN_MOTION":14.50439205,"ECCENTRICITY":0.00166627,"INCLINATION":98.9113,"RA_OF_ASC_NODE":124.7564,"ARG_OF_PERICENTER":324.7317,"MEAN_ANOMALY":35.2772,"EPHEMERIS_TYPE":0,"CLASSIFICATION_TYPE":"U","NORAD_CAT_ID":37689,"ELEMENT_SET_NO":999,"REV_AT_EPOCH":59143,"BSTAR":0.0030516248,"MEAN_MOTION_DOT":0.00011918,"MEAN_MOTION_DDOT":0},{"OBJECT_NAME":"FENGYUN 1C DEB","OBJECT_ID":"1999-025ELG","EPOCH":"2026-02-16T12:48:31.445856","MEAN_MOTION":14.60850134,"ECCENTRICITY":0.0269289,"INCLINATION":98.3705,"RA_OF_ASC_NODE":316.8342,"ARG_OF_PERICENTER":306.6389,"MEAN_ANOMALY":51.0321,"EPHEMERIS_TYPE":0,"CLASSIFICATION_TYPE":"U","NORAD_CAT_ID":37691,"ELEMENT_SET_NO":999,"REV_AT_EPOCH":86593,"BSTAR":0.0030884,"MEAN_MOTION_DOT":0.00025342,"MEAN_MOTION_DDOT":0},{"OBJECT_NAME":"FENGYUN 1C DEB","OBJECT_ID":"1999-025ELJ","EPOCH":"2026-03-14T11:34:10.557696","MEAN_MOTION":14.08723029,"ECCENTRICITY":0.00714828,"INCLINATION":98.6982,"RA_OF_ASC_NODE":75.0098,"ARG_OF_PERICENTER":174.4737,"MEAN_ANOMALY":338.1729,"EPHEMERIS_TYPE":0,"CLASSIFICATION_TYPE":"U","NORAD_CAT_ID":37693,"ELEMENT_SET_NO":999,"REV_AT_EPOCH":63440,"BSTAR":0.00060655324,"MEAN_MOTION_DOT":1.028e-5,"MEAN_MOTION_DDOT":0},{"OBJECT_NAME":"FENGYUN 1C DEB","OBJECT_ID":"1999-025ELL","EPOCH":"2026-03-14T20:13:48.805536","MEAN_MOTION":13.65392545,"ECCENTRICITY":0.04625524,"INCLINATION":98.1957,"RA_OF_ASC_NODE":108.323,"ARG_OF_PERICENTER":14.7383,"MEAN_ANOMALY":168.0831,"EPHEMERIS_TYPE":0,"CLASSIFICATION_TYPE":"U","NORAD_CAT_ID":37695,"ELEMENT_SET_NO":999,"REV_AT_EPOCH":90508,"BSTAR":0.0016090751,"MEAN_MOTION_DOT":2.7e-5,"MEAN_MOTION_DDOT":0},{"OBJECT_NAME":"FENGYUN 1C DEB","OBJECT_ID":"1999-025ELY","EPOCH":"2026-03-12T07:30:42.055200","MEAN_MOTION":14.57067722,"ECCENTRICITY":0.0142034,"INCLINATION":100.2223,"RA_OF_ASC_NODE":100.4372,"ARG_OF_PERICENTER":124.6909,"MEAN_ANOMALY":301.0043,"EPHEMERIS_TYPE":0,"CLASSIFICATION_TYPE":"U","NORAD_CAT_ID":37707,"ELEMENT_SET_NO":999,"REV_AT_EPOCH":86870,"BSTAR":0.00061542,"MEAN_MOTION_DOT":3.108e-5,"MEAN_MOTION_DDOT":0},{"OBJECT_NAME":"FENGYUN 1C DEB","OBJECT_ID":"1999-025EMD","EPOCH":"2026-03-09T05:24:35.054208","MEAN_MOTION":14.36760427,"ECCENTRICITY":0.00800173,"INCLINATION":98.8276,"RA_OF_ASC_NODE":214.3574,"ARG_OF_PERICENTER":98.1887,"MEAN_ANOMALY":23.4115,"EPHEMERIS_TYPE":0,"CLASSIFICATION_TYPE":"U","NORAD_CAT_ID":37712,"ELEMENT_SET_NO":999,"REV_AT_EPOCH":65202,"BSTAR":0.00058171393,"MEAN_MOTION_DOT":1.734e-5,"MEAN_MOTION_DDOT":0},{"OBJECT_NAME":"FENGYUN 1C DEB","OBJECT_ID":"1999-025EMF","EPOCH":"2026-03-02T06:18:36.936000","MEAN_MOTION":14.33170876,"ECCENTRICITY":0.0049711,"INCLINATION":98.8918,"RA_OF_ASC_NODE":180.0227,"ARG_OF_PERICENTER":207.5721,"MEAN_ANOMALY":152.2825,"EPHEMERIS_TYPE":0,"CLASSIFICATION_TYPE":"U","NORAD_CAT_ID":37714,"ELEMENT_SET_NO":999,"REV_AT_EPOCH":58648,"BSTAR":0.002374877,"MEAN_MOTION_DOT":6.571e-5,"MEAN_MOTION_DDOT":0},{"OBJECT_NAME":"FENGYUN 1C DEB","OBJECT_ID":"1999-025EMG","EPOCH":"2026-03-11T18:28:06.702528","MEAN_MOTION":13.95575335,"ECCENTRICITY":0.01129609,"INCLINATION":98.9572,"RA_OF_ASC_NODE":81.029,"ARG_OF_PERICENTER":227.1814,"MEAN_ANOMALY":312.1025,"EPHEMERIS_TYPE":0,"CLASSIFICATION_TYPE":"U","NORAD_CAT_ID":37715,"ELEMENT_SET_NO":999,"REV_AT_EPOCH":59045,"BSTAR":0.00068173625,"MEAN_MOTION_DOT":9.34e-6,"MEAN_MOTION_DDOT":0},{"OBJECT_NAME":"FENGYUN 1C DEB","OBJECT_ID":"1999-025EMJ","EPOCH":"2026-03-12T03:38:12.179904","MEAN_MOTION":15.01399565,"ECCENTRICITY":0.00474781,"INCLINATION":98.7428,"RA_OF_ASC_NODE":42.3618,"ARG_OF_PERICENTER":170.4512,"MEAN_ANOMALY":252.8917,"EPHEMERIS_TYPE":0,"CLASSIFICATION_TYPE":"U","NORAD_CAT_ID":37717,"ELEMENT_SET_NO":999,"REV_AT_EPOCH":90736,"BSTAR":0.0023977289,"MEAN_MOTION_DOT":0.00031731,"MEAN_MOTION_DDOT":0}]
