FENGYUN 1C DEB          
1 37589U 99025EKH 26070.51394811  .00006216  00000+0  33673-2 0  9992
2 37589  99.0737 338.6879 0120792  14.2145 346.2375 14.09165605838344
FENGYUN 1C DEB          
1 37591U 99025EKK 26072.11681891  .00025145  00000+0  54403-2 0  9996
2 37591  98.4090  23.9597 0072144  74.1890 343.5018 14.56576699677797
FENGYUN 1C DEB          
1 37594U 99025EKN 26072.79921161  .00000519  00000+0  30070-3 0  9993
2 37594  98.7240 104.6166 0085895  12.3409 347.9839 14.11220191790469
FENGYUN 1C DEB          
1 37595U 99025EKP 26070.44635713  .00035513  00000+0  49718-2 0  9999
2 37595  99.0483 294.9616 0023089  84.7224  46.7342 14.77245729639125
FENGYUN 1C DEB          
1 37683U 99025EKY 26063.54560365  .00002462  00000+0  19745-2 0  9994
2 37683  98.0009 330.7658 0582440 276.9345 210.2617 13.32446014303290
FENGYUN 1C DEB          
1 37686U 99025ELB 26059.28408746  .00000334  00000+0  47060-3 0  9995
2 37686  99.0210  73.8691 0394109 209.8027 217.4380 13.35440171616626
FENGYUN 1C DEB          
1 37687U 99025ELC 26062.30844179  .00005848  00000+0  32581-2 0  9993
2 37687  98.1986  92.6159 0337689 136.8862 287.1542 13.86110343843707
FENGYUN 1C DEB          
1 37689U 99025ELE 26073.58579084  .00011918  00000+0  30516-2 0  9998
2 37689  98.9113 124.7564 0016662 324.7317  35.2772 14.50439205591434
FENGYUN 1C DEB          
1 37691U 99025ELG 26047.53369729  .00025342  00000+0  30884-2 0  9994
2 37691  98.3705 316.8342 0269289 306.6389  51.0321 14.60850134865933
FENGYUN 1C DEB          
1 37693U 99025ELJ 26073.48206664  .00001028  00000+0  60655-3 0  9992
2 37693  98.6982  75.0098 0071482 174.4737 338.1729 14.08723029634402
FENGYUN 1C DEB          
1 37695U 99025ELL 26073.84292599  .00002700  00000+0  16091-2 0  9998
2 37695  98.1957 108.3230 0462552  14.7383 168.0831 13.65392545905080
FENGYUN 1C DEB          
1 37707U 99025ELY 26071.31298675  .00003108  00000+0  61542-3 0  9998
2 37707 100.2223 100.4372 0142034 124.6909 301.0043 14.57067722868709
FENGYUN 1C DEB          
1 37712U 99025EMD 26068.22540572  .00001734  00000+0  58171-3 0  9993
2 37712  98.8276 214.3574 0080017  98.1887  23.4115 14.36760427652026
FENGYUN 1C DEB          
1 37714U 99025EMF 26061.26292750  .00006571  00000+0  23749-2 0  9990
2 37714  98.8918 180.0227 0049711 207.5721 152.2825 14.33170876586489
FENGYUN 1C DEB          
1 37715U 99025EMG 26070.76952202  .00000934  00000+0  68174-3 0  9990
2 37715  98.9572  81.0290 0112960 227.1814 312.1025 13.95575335590452
FENGYUN 1C DEB          
1 37717U 99025EMJ 26071.15152986  .00031731  00000+0  23977-2 0  9997
2 37717  98.7428  42.3618 0047478 170.4512 252.8917 15.01399565907362
